[{"OBJECT_NAME":"OBJECT A","OBJECT_ID":"2023-048A","EPOCH":"2026-03-09T22:25:08.769792","MEAN_MOTION":13.45384838,"ECCENTRICITY":0.00584966,"INCLINATION":63.4045,"RA_OF_ASC_NODE":353.2773,"ARG_OF_PERICENTER":354.1397,"MEAN_ANOMALY":5.8938,"EPHEMERIS_TYPE":0,"CLASSIFICATION_TYPE":"U","NORAD_CAT_ID":56157,"ELEMENT_SET_NO":999,"REV_AT_EPOCH":14458,"BSTAR":0.00010130364,"MEAN_MOTION_DOT":-3.0e-7,"MEAN_MOTION_DDOT":0},{"OBJECT_NAME":"CZ-4C DEB","OBJECT_ID":"2014-047F","EPOCH":"2026-03-09T22:10:38.371008","MEAN_MOTION":13.44441275,"ECCENTRICITY":0.03822662,"INCLINATION":63.3812,"RA_OF_ASC_NODE":302.5516,"ARG_OF_PERICENTER":14.5876,"MEAN_ANOMALY":346.5823,"EPHEMERIS_TYPE":0,"CLASSIFICATION_TYPE":"U","NORAD_CAT_ID":40114,"ELEMENT_SET_NO":999,"REV_AT_EPOCH":56856,"BSTAR":0.00022583459,"MEAN_MOTION_DOT":1.14e-6,"MEAN_MOTION_DDOT":0}]
